[
    {
        "Altitude(m)": 707309.4840976316,
        "Argument of Periapsis(deg)": 0.007973084830638947,
        "Eccentricity": 0.0,
        "Inclination(deg)": 45.0,
        "Latitude(deg)": 45.154292328743715,
        "Longitude(deg)": 39.325200412580365,
        "Mean Anomaly(deg)": 89.89145165323659,
        "RAAN(deg)": 49.992473640979256,
        "Satellite Name": "Constellation 1 225",
        "Satellite Number": 225,
        "Semi-Major Axis(m)": 7083131.272910544,
        "Time(s)": 133
    },
    {
        "Altitude(m)": 707309.508530901,
        "Argument of Periapsis(deg)": 0.008033032836884352,
        "Eccentricity": 0.0,
        "Inclination(deg)": 45.0,
        "Latitude(deg)": 45.154366929276634,
        "Longitude(deg)": 39.406985524243794,
        "Mean Anomaly(deg)": 89.95215279348648,
        "RAAN(deg)": 49.992417051813696,
        "Satellite Name": "Constellation 1 225",
        "Satellite Number": 225,
        "Semi-Major Axis(m)": 7083131.272910544,
        "Time(s)": 134
    },
    {
        "Altitude(m)": 707309.5183249974,
        "Argument of Periapsis(deg)": 0.008092980843129758,
        "Eccentricity": 0.0,
        "Inclination(deg)": 45.0,
        "Latitude(deg)": 45.15437695900732,
        "Longitude(deg)": 39.488770762769455,
        "Mean Anomaly(deg)": 90.0128539337364,
        "RAAN(deg)": 49.99236046264812,
        "Satellite Name": "Constellation 1 225",
        "Satellite Number": 225,
        "Semi-Major Axis(m)": 7083131.272910544,
        "Time(s)": 135
    },
    {
        "Altitude(m)": 707309.5134798922,
        "Argument of Periapsis(deg)": 0.008152928849375162,
        "Eccentricity": 0.0,
        "Inclination(deg)": 45.0,
        "Latitude(deg)": 45.154322417891336,
        "Longitude(deg)": 39.570555934294944,
        "Mean Anomaly(deg)": 90.07355507398627,
        "RAAN(deg)": 49.99230387348255,
        "Satellite Name": "Constellation 1 225",
        "Satellite Number": 225,
        "Semi-Major Axis(m)": 7083131.272910544,
        "Time(s)": 136
    },
    {
        "Altitude(m)": 707309.493995654,
        "Argument of Periapsis(deg)": 0.008212876855620568,
        "Eccentricity": 0.0,
        "Inclination(deg)": 45.0,
        "Latitude(deg)": 45.15420330617292,
        "Longitude(deg)": 39.65234084495916,
        "Mean Anomaly(deg)": 90.13425621423619,
        "RAAN(deg)": 49.992247284316974,
        "Satellite Name": "Constellation 1 225",
        "Satellite Number": 225,
        "Semi-Major Axis(m)": 7083131.272910544,
        "Time(s)": 137
    },
    {
        "Altitude(m)": 707309.4598724323,
        "Argument of Periapsis(deg)": 0.008272824861865974,
        "Eccentricity": 0.0,
        "Inclination(deg)": 45.0,
        "Latitude(deg)": 45.15401962438498,
        "Longitude(deg)": 39.73412530090557,
        "Mean Anomaly(deg)": 90.19495735448608,
        "RAAN(deg)": 49.99219069515141,
        "Satellite Name": "Constellation 1 225",
        "Satellite Number": 225,
        "Semi-Major Axis(m)": 7083131.272910544,
        "Time(s)": 138
    },
    {
        "Altitude(m)": 707309.4111104643,
        "Argument of Periapsis(deg)": 0.00833277286811138,
        "Eccentricity": 0.0,
        "Inclination(deg)": 45.0,
        "Latitude(deg)": 45.153771373349024,
        "Longitude(deg)": 39.81590910828596,
        "Mean Anomaly(deg)": 90.255658494736,
        "RAAN(deg)": 49.99213410598583,
        "Satellite Name": "Constellation 1 225",
        "Satellite Number": 225,
        "Semi-Major Axis(m)": 7083131.272910544,
        "Time(s)": 139
    },
    {
        "Altitude(m)": 707309.3477100636,
        "Argument of Periapsis(deg)": 0.008392720874356788,
        "Eccentricity": 0.0,
        "Inclination(deg)": 45.0,
        "Latitude(deg)": 45.15345855417521,
        "Longitude(deg)": 39.89769207326377,
        "Mean Anomaly(deg)": 90.3163596349859,
        "RAAN(deg)": 49.992077516820274,
        "Satellite Name": "Constellation 1 225",
        "Satellite Number": 225,
        "Semi-Major Axis(m)": 7083131.272910544,
        "Time(s)": 140
    },
    {
        "Altitude(m)": 707309.2696716423,
        "Argument of Periapsis(deg)": 0.008452668880602192,
        "Eccentricity": 0.0,
        "Inclination(deg)": 45.0,
        "Latitude(deg)": 45.15308116826202,
        "Longitude(deg)": 39.97947383392046,
        "Mean Anomaly(deg)": 90.37706077523578,
        "RAAN(deg)": 49.9920209276547,
        "Satellite Name": "Constellation 1 225",
        "Satellite Number": 225,
        "Semi-Major Axis(m)": 7083131.272910544,
        "Time(s)": 141
    },
    {
        "Altitude(m)": 707309.1769956886,
        "Argument of Periapsis(deg)": 0.008512616886847598,
        "Eccentricity": 0.0,
        "Inclination(deg)": 45.0,
        "Latitude(deg)": 45.15263921729724,
        "Longitude(deg)": 40.06125453264761,
        "Mean Anomaly(deg)": 90.43776191548567,
        "RAAN(deg)": 49.99196433848913,
        "Satellite Name": "Constellation 1 225",
        "Satellite Number": 225,
        "Semi-Major Axis(m)": 7083131.272910544,
        "Time(s)": 142
    },
    {
        "Altitude(m)": 707309.0696827824,
        "Argument of Periapsis(deg)": 0.008572564893093004,
        "Eccentricity": 0.0,
        "Inclination(deg)": 45.0,
        "Latitude(deg)": 45.1521327032565,
        "Longitude(deg)": 40.14303380756763,
        "Mean Anomaly(deg)": 90.49846305573556,
        "RAAN(deg)": 49.99190774932356,
        "Satellite Name": "Constellation 1 225",
        "Satellite Number": 225,
        "Semi-Major Axis(m)": 7083131.272910544,
        "Time(s)": 143
    },
    {
        "Altitude(m)": 707308.9477335829,
        "Argument of Periapsis(deg)": 0.008632512899338408,
        "Eccentricity": 0.0,
        "Inclination(deg)": 45.0,
        "Latitude(deg)": 45.15156162840408,
        "Longitude(deg)": 40.22481146492558,
        "Mean Anomaly(deg)": 90.55916419598547,
        "RAAN(deg)": 49.991851160158,
        "Satellite Name": "Constellation 1 225",
        "Satellite Number": 225,
        "Semi-Major Axis(m)": 7083131.272910544,
        "Time(s)": 144
    },
    {
        "Altitude(m)": 707308.8111488412,
        "Argument of Periapsis(deg)": 0.008692460905583814,
        "Eccentricity": 0.0,
        "Inclination(deg)": 45.0,
        "Latitude(deg)": 45.150925995292766,
        "Longitude(deg)": 40.3065873109957,
        "Mean Anomaly(deg)": 90.61986533623535,
        "RAAN(deg)": 49.991794570992425,
        "Satellite Name": "Constellation 1 225",
        "Satellite Number": 225,
        "Semi-Major Axis(m)": 7083131.272910544,
        "Time(s)": 145
    },
    {
        "Altitude(m)": 707308.659929393,
        "Argument of Periapsis(deg)": 0.00875240891182922,
        "Eccentricity": 0.0,
        "Inclination(deg)": 45.0,
        "Latitude(deg)": 45.15022580676366,
        "Longitude(deg)": 40.38836115208506,
        "Mean Anomaly(deg)": 90.68056647648525,
        "RAAN(deg)": 49.99173798182685,
        "Satellite Name": "Constellation 1 225",
        "Satellite Number": 225,
        "Semi-Major Axis(m)": 7083131.272910544,
        "Time(s)": 146
    },
    {
        "Altitude(m)": 707308.4940761528,
        "Argument of Periapsis(deg)": 0.008812356918074627,
        "Eccentricity": 0.0,
        "Inclination(deg)": 45.0,
        "Latitude(deg)": 45.14946106594627,
        "Longitude(deg)": 40.47013279453661,
        "Mean Anomaly(deg)": 90.74126761673517,
        "RAAN(deg)": 49.99168139266128,
        "Satellite Name": "Constellation 1 225",
        "Satellite Number": 225,
        "Semi-Major Axis(m)": 7083131.272910544,
        "Time(s)": 147
    },
    {
        "Altitude(m)": 707308.3135901276,
        "Argument of Periapsis(deg)": 0.008872304924320031,
        "Eccentricity": 0.0,
        "Inclination(deg)": 45.0,
        "Latitude(deg)": 45.148631776258085,
        "Longitude(deg)": 40.551901876635775,
        "Mean Anomaly(deg)": 90.80196875698506,
        "RAAN(deg)": 49.99162480349572,
        "Satellite Name": "Constellation 1 225",
        "Satellite Number": 225,
        "Semi-Major Axis(m)": 7083131.272910544,
        "Time(s)": 148
    },
    {
        "Altitude(m)": 707308.1184724056,
        "Argument of Periapsis(deg)": 0.008932252930565437,
        "Eccentricity": 0.0,
        "Inclination(deg)": 45.0,
        "Latitude(deg)": 45.14773794140546,
        "Longitude(deg)": 40.63366854100295,
        "Mean Anomaly(deg)": 90.862669897235,
        "RAAN(deg)": 49.991568214330144,
        "Satellite Name": "Constellation 1 225",
        "Satellite Number": 225,
        "Semi-Major Axis(m)": 7083131.272910544,
        "Time(s)": 149
    },
    {
        "Altitude(m)": 707307.9087241682,
        "Argument of Periapsis(deg)": 0.008992200936810843,
        "Eccentricity": 0.0,
        "Inclination(deg)": 45.0,
        "Latitude(deg)": 45.1467795653822,
        "Longitude(deg)": 40.71543242601289,
        "Mean Anomaly(deg)": 90.92337103748483,
        "RAAN(deg)": 49.99151162516458,
        "Satellite Name": "Constellation 1 225",
        "Satellite Number": 225,
        "Semi-Major Axis(m)": 7083131.272910544,
        "Time(s)": 150
    },
    {
        "Altitude(m)": 707307.6843466694,
        "Argument of Periapsis(deg)": 0.009052148943056249,
        "Eccentricity": 0.0,
        "Inclination(deg)": 45.0,
        "Latitude(deg)": 45.14575665247031,
        "Longitude(deg)": 40.79719333818836,
        "Mean Anomaly(deg)": 90.98407217773476,
        "RAAN(deg)": 49.991455035999,
        "Satellite Name": "Constellation 1 225",
        "Satellite Number": 225,
        "Semi-Major Axis(m)": 7083131.272910544,
        "Time(s)": 151
    }
]